{
  "norad_id": 54880,
  "name": "EROS C3",
  "history": [
    {
      "epoch": "2026-03-28T21:54:52.233984Z",
      "apogee_km": 532.6148671374949,
      "perigee_km": 527.4064001476336,
      "latitude_deg": 3.7508972568589365e-06,
      "longitude_deg": 111.33732120335632,
      "height_km": 531.9637584733372,
      "semi_major_axis_km": 6908.147633642564,
      "eccentricity": 0.00037698,
      "inclination_deg": 139.3375,
      "raan_deg": 266.3817,
      "arg_perigee_deg": 200.8939,
      "mean_anomaly_deg": 159.1715,
      "mean_motion_rev_day": 15.12029786
    },
    {
      "epoch": "2026-03-29T04:15:19.195200Z",
      "apogee_km": 532.6587605344548,
      "perigee_km": 527.3422579073585,
      "latitude_deg": 6.571558241596329e-07,
      "longitude_deg": 17.47637811204037,
      "height_km": 531.9833751373648,
      "semi_major_axis_km": 6908.137509220906,
      "eccentricity": 0.0003848,
      "inclination_deg": 139.3376,
      "raan_deg": 267.8935,
      "arg_perigee_deg": 202.1163,
      "mean_anomaly_deg": 157.9479,
      "mean_motion_rev_day": 15.1203311
    },
    {
      "epoch": "2026-03-30T04:01:59.941632Z",
      "apogee_km": 532.7014181114355,
      "perigee_km": 527.2274385396304,
      "latitude_deg": 3.3212582502969355e-05,
      "longitude_deg": 25.498937083601017,
      "height_km": 531.8907244899739,
      "semi_major_axis_km": 6908.101428325533,
      "eccentricity": 0.0003962,
      "inclination_deg": 139.3375,
      "raan_deg": 273.5624,
      "arg_perigee_deg": 208.4809,
      "mean_anomaly_deg": 151.5783,
      "mean_motion_rev_day": 15.12044956
    },
    {
      "epoch": "2026-03-30T05:37:06.646080Z",
      "apogee_km": 532.7076801990852,
      "perigee_km": 527.2202992589046,
      "latitude_deg": -6.716524493132474e-06,
      "longitude_deg": 2.033946514753291,
      "height_km": 531.8867676142712,
      "semi_major_axis_km": 6908.100989728994,
      "eccentricity": 0.00039717,
      "inclination_deg": 139.3375,
      "raan_deg": 273.9404,
      "arg_perigee_deg": 208.8913,
      "mean_anomaly_deg": 151.1675,
      "mean_motion_rev_day": 15.120451
    },
    {
      "epoch": "2026-03-30T11:57:33.393888Z",
      "apogee_km": 532.7329321337584,
      "perigee_km": 527.1784111402012,
      "latitude_deg": 1.4106173183595108e-05,
      "longitude_deg": -91.82613238222487,
      "height_km": 531.8679223183203,
      "semi_major_axis_km": 6908.0926716369795,
      "eccentricity": 0.00040203,
      "inclination_deg": 139.3374,
      "raan_deg": 275.4522,
      "arg_perigee_deg": 210.5564,
      "mean_anomaly_deg": 149.501,
      "mean_motion_rev_day": 15.12047831
    },
    {
      "epoch": "2026-03-30T21:28:13.413216Z",
      "apogee_km": 532.7398132238723,
      "perigee_km": 527.139573610054,
      "latitude_deg": -6.8391599707418585e-06,
      "longitude_deg": 127.38423745107085,
      "height_km": 531.8169754185658,
      "semi_major_axis_km": 6908.076693416963,
      "eccentricity": 0.00040534,
      "inclination_deg": 139.3374,
      "raan_deg": 277.7199,
      "arg_perigee_deg": 212.6934,
      "mean_anomaly_deg": 147.3623,
      "mean_motion_rev_day": 15.12053077
    },
    {
      "epoch": "2026-03-31T19:39:46.501344Z",
      "apogee_km": 532.7942761451641,
      "perigee_km": 527.0288188274317,
      "latitude_deg": 4.4341205703579605e-05,
      "longitude_deg": 158.87609767462973,
      "height_km": 531.707668773556,
      "semi_major_axis_km": 6908.048547486297,
      "eccentricity": 0.0004173,
      "inclination_deg": 139.3372,
      "raan_deg": 283.0111,
      "arg_perigee_deg": 217.8884,
      "mean_anomaly_deg": 142.1631,
      "mean_motion_rev_day": 15.12062318
    },
    {
      "epoch": "2026-04-01T17:51:19.091808Z",
      "apogee_km": 532.8580150608823,
      "perigee_km": 526.9254000068513,
      "latitude_deg": -1.4277269210795421e-05,
      "longitude_deg": -169.6297358066427,
      "height_km": 531.5869588108181,
      "semi_major_axis_km": 6908.0287075338665,
      "eccentricity": 0.0004294,
      "inclination_deg": 139.3371,
      "raan_deg": 288.3024,
      "arg_perigee_deg": 222.8713,
      "mean_anomaly_deg": 137.176,
      "mean_motion_rev_day": 15.12068832
    },
    {
      "epoch": "2026-04-02T19:13:04.292832Z",
      "apogee_km": 532.9111489859251,
      "perigee_km": 526.800338604763,
      "latitude_deg": -5.0126223137676794e-05,
      "longitude_deg": 174.93776581483004,
      "height_km": 531.4043856829187,
      "semi_major_axis_km": 6907.992743795344,
      "eccentricity": 0.0004423,
      "inclination_deg": 139.3369,
      "raan_deg": 294.3498,
      "arg_perigee_deg": 228.4369,
      "mean_anomaly_deg": 131.6059,
      "mean_motion_rev_day": 15.1208064
    },
    {
      "epoch": "2026-04-02T22:23:17.356992Z",
      "apogee_km": 532.8943440406192,
      "perigee_km": 526.7893486553712,
      "latitude_deg": 4.615141098855569e-05,
      "longitude_deg": 128.00882102985958,
      "height_km": 531.3482229736827,
      "semi_major_axis_km": 6907.978846347995,
      "eccentricity": 0.00044188,
      "inclination_deg": 139.3368,
      "raan_deg": 295.1056,
      "arg_perigee_deg": 229.4419,
      "mean_anomaly_deg": 130.6005,
      "mean_motion_rev_day": 15.12085203
    },
    {
      "epoch": "2026-04-03T12:39:16.154784Z",
      "apogee_km": 532.9113327745517,
      "perigee_km": 526.7300922134109,
      "latitude_deg": 2.4392188877869792e-05,
      "longitude_deg": -83.1704420376948,
      "height_km": 531.2109498762871,
      "semi_major_axis_km": 6907.957712493981,
      "eccentricity": 0.0004474,
      "inclination_deg": 139.337,
      "raan_deg": 298.5072,
      "arg_perigee_deg": 232.8008,
      "mean_anomaly_deg": 127.2392,
      "mean_motion_rev_day": 15.12092142
    },
    {
      "epoch": "2026-04-04T12:25:53.552352Z",
      "apogee_km": 532.9384169772829,
      "perigee_km": 526.6323128088197,
      "latitude_deg": -1.951418721072895e-05,
      "longitude_deg": -75.13340387960811,
      "height_km": 530.9766858460762,
      "semi_major_axis_km": 6907.922364893051,
      "eccentricity": 0.00045644,
      "inclination_deg": 139.3369,
      "raan_deg": 304.1765,
      "arg_perigee_deg": 238.0303,
      "mean_anomaly_deg": 122.0061,
      "mean_motion_rev_day": 15.12103748
    },
    {
      "epoch": "2026-04-05T13:47:36.850848Z",
      "apogee_km": 532.9669542177908,
      "perigee_km": 526.5481386052661,
      "latitude_deg": -3.358519043285011e-05,
      "longitude_deg": -90.55818092957273,
      "height_km": 530.7109723990677,
      "semi_major_axis_km": 6907.894546411529,
      "eccentricity": 0.0004646,
      "inclination_deg": 139.3368,
      "raan_deg": 310.2237,
      "arg_perigee_deg": 243.5129,
      "mean_anomaly_deg": 116.5202,
      "mean_motion_rev_day": 15.12112882
    },
    {
      "epoch": "2026-04-06T05:38:41.142624Z",
      "apogee_km": 532.9632384871711,
      "perigee_km": 526.5181885804441,
      "latitude_deg": 4.134195399383014e-06,
      "longitude_deg": 34.802406326210274,
      "height_km": 530.5216696768182,
      "semi_major_axis_km": 6907.877713533808,
      "eccentricity": 0.0004665,
      "inclination_deg": 139.3368,
      "raan_deg": 314.0032,
      "arg_perigee_deg": 247.0059,
      "mean_anomaly_deg": 113.0257,
      "mean_motion_rev_day": 15.12118409
    },
    {
      "epoch": "2026-04-07T14:55:55.584768Z",
      "apogee_km": 532.9614013626515,
      "perigee_km": 526.4638779915713,
      "latitude_deg": 3.104949159238941e-05,
      "longitude_deg": -97.93766684086894,
      "height_km": 530.141251129079,
      "semi_major_axis_km": 6907.849639677112,
      "eccentricity": 0.0004703,
      "inclination_deg": 139.337,
      "raan_deg": 321.9404,
      "arg_perigee_deg": 253.8,
      "mean_anomaly_deg": 106.2291,
      "mean_motion_rev_day": 15.12127627
    },
    {
      "epoch": "2026-04-07T21:16:21.129888Z",
      "apogee_km": 532.9750481394894,
      "perigee_km": 526.4429889443563,
      "latitude_deg": -3.950511398877212e-05,
      "longitude_deg": 168.2073838932963,
      "height_km": 530.073782746156,
      "semi_major_axis_km": 6907.846018541923,
      "eccentricity": 0.0004728,
      "inclination_deg": 139.337,
      "raan_deg": 323.4522,
      "arg_perigee_deg": 255.0511,
      "mean_anomaly_deg": 104.9773,
      "mean_motion_rev_day": 15.12128816
    },
    {
      "epoch": "2026-04-08T14:42:31.191264Z",
      "apogee_km": 532.9647216134963,
      "perigee_km": 526.4263199759143,
      "latitude_deg": -2.001538660807023e-06,
      "longitude_deg": -89.89326049039732,
      "height_km": 529.8512923441666,
      "semi_major_axis_km": 6907.8325207947055,
      "eccentricity": 0.00047326,
      "inclination_deg": 139.3371,
      "raan_deg": 327.6096,
      "arg_perigee_deg": 258.8274,
      "mean_anomaly_deg": 101.2002,
      "mean_motion_rev_day": 15.12133248
    },
    {
      "epoch": "2026-04-09T14:29:06.470304Z",
      "apogee_km": 532.9404504662862,
      "perigee_km": 526.404281244314,
      "latitude_deg": 2.670729959279183e-06,
      "longitude_deg": -81.84762962857991,
      "height_km": 529.538346614806,
      "semi_major_axis_km": 6907.8093658553,
      "eccentricity": 0.0004731,
      "inclination_deg": 139.3373,
      "raan_deg": 333.2787,
      "arg_perigee_deg": 263.9645,
      "mean_anomaly_deg": 96.0624,
      "mean_motion_rev_day": 15.12140851
    },
    {
      "epoch": "2026-04-10T06:20:09.751200Z",
      "apogee_km": 532.9349322639273,
      "perigee_km": 526.3815069390921,
      "latitude_deg": -1.2868221551374505e-05,
      "longitude_deg": 43.51714238042028,
      "height_km": 529.3423316551969,
      "semi_major_axis_km": 6907.795219601509,
      "eccentricity": 0.00047435,
      "inclination_deg": 139.3374,
      "raan_deg": 337.0581,
      "arg_perigee_deg": 267.171,
      "mean_anomaly_deg": 92.8555,
      "mean_motion_rev_day": 15.12145496
    }
  ]
}